{
  "norad_id": 52900,
  "name": "MIMAN",
  "history": [
    {
      "epoch": "2026-03-28T21:26:59.518752Z",
      "apogee_km": 692.0414808035839,
      "perigee_km": 683.0708767438118,
      "latitude_deg": 6.702376616945129e-05,
      "longitude_deg": 82.7835449473927,
      "height_km": 689.9325726784207,
      "semi_major_axis_km": 7065.693178773698,
      "eccentricity": 0.0006348,
      "inclination_deg": 98.2124,
      "raan_deg": 230.8392,
      "arg_perigee_deg": 277.9079,
      "mean_anomaly_deg": 82.1402,
      "mean_motion_rev_day": 14.61741577
    },
    {
      "epoch": "2026-03-28T21:26:59.519616Z",
      "apogee_km": 692.0413394897196,
      "perigee_km": 683.0710180576762,
      "latitude_deg": 6.477646693943185e-05,
      "longitude_deg": 82.78354166012964,
      "height_km": 689.9325921239392,
      "semi_major_axis_km": 7065.693178773698,
      "eccentricity": 0.00063478,
      "inclination_deg": 98.2124,
      "raan_deg": 230.8392,
      "arg_perigee_deg": 277.9079,
      "mean_anomaly_deg": 82.1402,
      "mean_motion_rev_day": 14.61741577
    },
    {
      "epoch": "2026-03-30T04:39:50.522400Z",
      "apogee_km": 692.0303198824495,
      "perigee_km": 683.0625544639888,
      "latitude_deg": 2.5965155324706936e-05,
      "longitude_deg": -25.418983983153797,
      "height_km": 690.3006194608698,
      "semi_major_axis_km": 7065.683437173219,
      "eccentricity": 0.0006346,
      "inclination_deg": 98.2126,
      "raan_deg": 232.1311,
      "arg_perigee_deg": 273.0607,
      "mean_anomaly_deg": 86.9868,
      "mean_motion_rev_day": 14.617446
    },
    {
      "epoch": "2026-03-30T04:39:50.523264Z",
      "apogee_km": 692.0305318529527,
      "perigee_km": 683.0623424934865,
      "latitude_deg": 2.9384460822510378e-05,
      "longitude_deg": -25.418988083850326,
      "height_km": 690.3006081403124,
      "semi_major_axis_km": 7065.683437173219,
      "eccentricity": 0.00063463,
      "inclination_deg": 98.2126,
      "raan_deg": 232.1311,
      "arg_perigee_deg": 273.0607,
      "mean_anomaly_deg": 86.9868,
      "mean_motion_rev_day": 14.617446
    },
    {
      "epoch": "2026-03-30T09:35:33.292032Z",
      "apogee_km": 692.0351704806671,
      "perigee_km": 683.0549711959147,
      "latitude_deg": -2.9728333370125698e-05,
      "longitude_deg": -99.34559078893012,
      "height_km": 690.3571109106322,
      "semi_major_axis_km": 7065.682070838291,
      "eccentricity": 0.00063548,
      "inclination_deg": 98.2127,
      "raan_deg": 232.3351,
      "arg_perigee_deg": 272.3176,
      "mean_anomaly_deg": 87.7297,
      "mean_motion_rev_day": 14.61745024
    },
    {
      "epoch": "2026-03-30T21:05:33.065088Z",
      "apogee_km": 692.0310561470578,
      "perigee_km": 683.0525567741133,
      "latitude_deg": 1.0679989020068089e-05,
      "longitude_deg": 88.15906393514094,
      "height_km": 690.4953402405408,
      "semi_major_axis_km": 7065.678806460585,
      "eccentricity": 0.00063536,
      "inclination_deg": 98.2128,
      "raan_deg": 232.8111,
      "arg_perigee_deg": 270.5119,
      "mean_anomaly_deg": 89.5354,
      "mean_motion_rev_day": 14.61746037
    },
    {
      "epoch": "2026-03-31T08:35:32.843328Z",
      "apogee_km": 692.0309665942859,
      "perigee_km": 683.0463947122807,
      "latitude_deg": -5.614349485758944e-05,
      "longitude_deg": -84.33628751764063,
      "height_km": 690.6292899961339,
      "semi_major_axis_km": 7065.675680653283,
      "eccentricity": 0.00063579,
      "inclination_deg": 98.2128,
      "raan_deg": 233.2871,
      "arg_perigee_deg": 268.7636,
      "mean_anomaly_deg": 91.2836,
      "mean_motion_rev_day": 14.61747007
    },
    {
      "epoch": "2026-04-01T20:44:06.201024Z",
      "apogee_km": 692.036019819282,
      "perigee_km": 683.0258800495267,
      "latitude_deg": 3.436785823345069e-05,
      "longitude_deg": 93.53648724287993,
      "height_km": 691.0644077780598,
      "semi_major_axis_km": 7065.6679499344045,
      "eccentricity": 0.0006376,
      "inclination_deg": 98.2132,
      "raan_deg": 234.7832,
      "arg_perigee_deg": 263.1193,
      "mean_anomaly_deg": 96.9283,
      "mean_motion_rev_day": 14.61749406
    },
    {
      "epoch": "2026-04-02T08:14:05.831520Z",
      "apogee_km": 692.0386685071107,
      "perigee_km": 683.0098839019247,
      "latitude_deg": -1.3381368958915213e-05,
      "longitude_deg": -78.95824989757237,
      "height_km": 691.1930686441882,
      "semi_major_axis_km": 7065.661276204517,
      "eccentricity": 0.00063892,
      "inclination_deg": 98.2133,
      "raan_deg": 235.2592,
      "arg_perigee_deg": 261.4004,
      "mean_anomaly_deg": 98.6473,
      "mean_motion_rev_day": 14.61751477
    },
    {
      "epoch": "2026-04-02T21:22:39.601632Z",
      "apogee_km": 692.0379897731364,
      "perigee_km": 682.9987555417883,
      "latitude_deg": 2.3766147066912545e-05,
      "longitude_deg": 83.90538427031075,
      "height_km": 691.3491270291123,
      "semi_major_axis_km": 7065.655372657462,
      "eccentricity": 0.00063966,
      "inclination_deg": 98.2134,
      "raan_deg": 235.8033,
      "arg_perigee_deg": 259.3279,
      "mean_anomaly_deg": 100.7202,
      "mean_motion_rev_day": 14.61753309
    },
    {
      "epoch": "2026-04-03T15:26:56.071392Z",
      "apogee_km": 692.0372437244432,
      "perigee_km": 682.9861477452059,
      "latitude_deg": -2.3331685563061473e-05,
      "longitude_deg": 172.84260753881082,
      "height_km": 691.5567518723154,
      "semi_major_axis_km": 7065.648695734824,
      "eccentricity": 0.0006405,
      "inclination_deg": 98.2135,
      "raan_deg": 236.5513,
      "arg_perigee_deg": 256.5677,
      "mean_anomaly_deg": 103.481,
      "mean_motion_rev_day": 14.61755381
    },
    {
      "epoch": "2026-04-04T09:31:12.397728Z",
      "apogee_km": 692.0484731809547,
      "perigee_km": 682.9660114461149,
      "latitude_deg": 8.862690225841733e-05,
      "longitude_deg": -98.21949322358934,
      "height_km": 691.7725591161953,
      "semi_major_axis_km": 7065.644242313534,
      "eccentricity": 0.00064272,
      "inclination_deg": 98.2137,
      "raan_deg": 237.2994,
      "arg_perigee_deg": 253.74,
      "mean_anomaly_deg": 106.3095,
      "mean_motion_rev_day": 14.61756763
    },
    {
      "epoch": "2026-04-05T08:31:11.320032Z",
      "apogee_km": 692.05865369601,
      "perigee_km": 682.9459573708782,
      "latitude_deg": -3.9547038206605005e-06,
      "longitude_deg": -83.20745488259844,
      "height_km": 692.0413355667896,
      "semi_major_axis_km": 7065.639305533444,
      "eccentricity": 0.00064486,
      "inclination_deg": 98.2139,
      "raan_deg": 238.2515,
      "arg_perigee_deg": 250.1754,
      "mean_anomaly_deg": 109.8752,
      "mean_motion_rev_day": 14.61758295
    },
    {
      "epoch": "2026-04-05T20:01:10.738848Z",
      "apogee_km": 692.0624316304884,
      "perigee_km": 682.9378678153362,
      "latitude_deg": 4.393093921105559e-05,
      "longitude_deg": 104.29867739615541,
      "height_km": 692.1779323332617,
      "semi_major_axis_km": 7065.637149722912,
      "eccentricity": 0.0006457,
      "inclination_deg": 98.214,
      "raan_deg": 238.7275,
      "arg_perigee_deg": 248.3388,
      "mean_anomaly_deg": 111.7126,
      "mean_motion_rev_day": 14.61758964
    },
    {
      "epoch": "2026-04-05T23:18:19.136448Z",
      "apogee_km": 692.065138972479,
      "perigee_km": 682.9335105863338,
      "latitude_deg": 5.719434968392649e-05,
      "longitude_deg": 55.01474773883263,
      "height_km": 692.2150865173537,
      "semi_major_axis_km": 7065.636324779406,
      "eccentricity": 0.0006462,
      "inclination_deg": 98.214,
      "raan_deg": 238.8635,
      "arg_perigee_deg": 247.8427,
      "mean_anomaly_deg": 112.2089,
      "mean_motion_rev_day": 14.6175922
    },
    {
      "epoch": "2026-04-07T08:09:42.998400Z",
      "apogee_km": 692.0963813641238,
      "perigee_km": 682.8859111377969,
      "latitude_deg": -2.138570469603772e-05,
      "longitude_deg": -77.8238430864258,
      "height_km": 692.5803613767459,
      "semi_major_axis_km": 7065.62814625096,
      "eccentricity": 0.00065178,
      "inclination_deg": 98.2143,
      "raan_deg": 240.2237,
      "arg_perigee_deg": 242.9335,
      "mean_anomaly_deg": 117.1201,
      "mean_motion_rev_day": 14.61761758
    },
    {
      "epoch": "2026-04-07T16:22:33.965184Z",
      "apogee_km": 692.1010272472076,
      "perigee_km": 682.878970888024,
      "latitude_deg": 7.294634512151498e-06,
      "longitude_deg": 158.96654673300534,
      "height_km": 692.6703253095116,
      "semi_major_axis_km": 7065.6269990676155,
      "eccentricity": 0.0006526,
      "inclination_deg": 98.2144,
      "raan_deg": 240.5638,
      "arg_perigee_deg": 241.6916,
      "mean_anomaly_deg": 118.3627,
      "mean_motion_rev_day": 14.61762114
    },
    {
      "epoch": "2026-04-08T15:22:32.540160Z",
      "apogee_km": 692.121626310648,
      "perigee_km": 682.8501159791313,
      "latitude_deg": -5.960316802504262e-05,
      "longitude_deg": 173.98013084944128,
      "height_km": 692.9244468179613,
      "semi_major_axis_km": 7065.622871144889,
      "eccentricity": 0.0006561,
      "inclination_deg": 98.2146,
      "raan_deg": 241.516,
      "arg_perigee_deg": 238.1694,
      "mean_anomaly_deg": 121.8868,
      "mean_motion_rev_day": 14.61763395
    },
    {
      "epoch": "2026-04-09T16:01:05.219328Z",
      "apogee_km": 692.1359549096151,
      "perigee_km": 682.822059888661,
      "latitude_deg": -2.008722174517234e-06,
      "longitude_deg": 164.35222847473557,
      "height_km": 693.1809861371045,
      "semi_major_axis_km": 7065.616007399138,
      "eccentricity": 0.0006591,
      "inclination_deg": 98.2149,
      "raan_deg": 242.5363,
      "arg_perigee_deg": 234.4373,
      "mean_anomaly_deg": 125.6214,
      "mean_motion_rev_day": 14.61765525
    }
  ]
}